ORBCOMM FM103           
1 40091U 14040F   24291.83953877  .00003320  00000+0  76390-3 0  9996
2 40091  47.0042  81.6271 0002810 248.1419 111.9167 14.57251270545800
ORBCOMM FM114           
1 41179U 15081A   24291.45779049  .00003547  00000+0  81360-3 0  9999
2 41179  47.0032 352.6268 0003060 304.7269  55.3328 14.57256371469109
ORBCOMM FM119           
1 41180U 15081B   24291.91382089  .00003522  00000+0  80850-3 0  9992
2 41180  46.9994 259.7017 0001469 354.7149   5.3720 14.57231328470375
ORBCOMM FM105           
1 41181U 15081C   24291.59783484  .00001939  00000+0  59861-3 0  9999
2 41181  47.0010 242.9046 0002401 306.7441  53.3218 14.44744674465774
ORBCOMM FM110           
1 41182U 15081D   24291.50269611  .00003854  00000+0  88082-3 0  9997
2 41182  47.0024 351.8000 0000263 135.2962 224.7945 14.57245577468931
ORBCOMM FM118           
1 41183U 15081E   24291.48072029  .00003940  00000+0  89951-3 0  9992
2 41183  47.0047 352.2499 0000633 138.6323 221.4610 14.57256620469039
ORBCOMM FM112           
1 41184U 15081F   24291.34292034  .00002877  00000+0  66761-3 0  9990
2 41184  46.9979 261.5916 0002102 342.0254  18.0556 14.57216811470236
ORBCOMM FM113           
1 41185U 15081G   24291.32005649  .00002806  00000+0  65205-3 0  9997
2 41185  47.0006 261.9911 0001750 359.3958   0.6925 14.57205387470210
