<?xml version="1.0" encoding="UTF-8"?>
<ndm xmlns:xsi="http://www.w3.org/2001/XMLSchema-instance" xsi:noNamespaceSchemaLocation="https://sanaregistry.org/r/ndmxml_unqualified/ndmxml-2.0.0-master-2.0.xsd">
<omm id="CCSDS_OMM_VERS" version="2.0">
<header><CREATION_DATE/><ORIGINATOR/></header><body><segment><metadata><OBJECT_NAME>ORBCOMM FM103</OBJECT_NAME><OBJECT_ID>2014-040F</OBJECT_ID><CENTER_NAME>EARTH</CENTER_NAME><REF_FRAME>TEME</REF_FRAME><TIME_SYSTEM>UTC</TIME_SYSTEM><MEAN_ELEMENT_THEORY>SGP4</MEAN_ELEMENT_THEORY></metadata><data><meanElements><EPOCH>2024-10-17T20:08:56.149728</EPOCH><MEAN_MOTION>14.57251270</MEAN_MOTION><ECCENTRICITY>.000281</ECCENTRICITY><INCLINATION>47.0042</INCLINATION><RA_OF_ASC_NODE>81.6271</RA_OF_ASC_NODE><ARG_OF_PERICENTER>248.1419</ARG_OF_PERICENTER><MEAN_ANOMALY>111.9167</MEAN_ANOMALY></meanElements><tleParameters><EPHEMERIS_TYPE>0</EPHEMERIS_TYPE><CLASSIFICATION_TYPE>U</CLASSIFICATION_TYPE><NORAD_CAT_ID>40091</NORAD_CAT_ID><ELEMENT_SET_NO>999</ELEMENT_SET_NO><REV_AT_EPOCH>54580</REV_AT_EPOCH><BSTAR>.7639E-3</BSTAR><MEAN_MOTION_DOT>.332E-4</MEAN_MOTION_DOT><MEAN_MOTION_DDOT>0</MEAN_MOTION_DDOT></tleParameters></data></segment></body></omm>
<omm id="CCSDS_OMM_VERS" version="2.0">
<header><CREATION_DATE/><ORIGINATOR/></header><body><segment><metadata><OBJECT_NAME>ORBCOMM FM114</OBJECT_NAME><OBJECT_ID>2015-081A</OBJECT_ID><CENTER_NAME>EARTH</CENTER_NAME><REF_FRAME>TEME</REF_FRAME><TIME_SYSTEM>UTC</TIME_SYSTEM><MEAN_ELEMENT_THEORY>SGP4</MEAN_ELEMENT_THEORY></metadata><data><meanElements><EPOCH>2024-10-17T10:59:13.098336</EPOCH><MEAN_MOTION>14.57256371</MEAN_MOTION><ECCENTRICITY>.000306</ECCENTRICITY><INCLINATION>47.0032</INCLINATION><RA_OF_ASC_NODE>352.6268</RA_OF_ASC_NODE><ARG_OF_PERICENTER>304.7269</ARG_OF_PERICENTER><MEAN_ANOMALY>55.3328</MEAN_ANOMALY></meanElements><tleParameters><EPHEMERIS_TYPE>0</EPHEMERIS_TYPE><CLASSIFICATION_TYPE>U</CLASSIFICATION_TYPE><NORAD_CAT_ID>41179</NORAD_CAT_ID><ELEMENT_SET_NO>999</ELEMENT_SET_NO><REV_AT_EPOCH>46910</REV_AT_EPOCH><BSTAR>.8136E-3</BSTAR><MEAN_MOTION_DOT>.3547E-4</MEAN_MOTION_DOT><MEAN_MOTION_DDOT>0</MEAN_MOTION_DDOT></tleParameters></data></segment></body></omm>
<omm id="CCSDS_OMM_VERS" version="2.0">
<header><CREATION_DATE/><ORIGINATOR/></header><body><segment><metadata><OBJECT_NAME>ORBCOMM FM119</OBJECT_NAME><OBJECT_ID>2015-081B</OBJECT_ID><CENTER_NAME>EARTH</CENTER_NAME><REF_FRAME>TEME</REF_FRAME><TIME_SYSTEM>UTC</TIME_SYSTEM><MEAN_ELEMENT_THEORY>SGP4</MEAN_ELEMENT_THEORY></metadata><data><meanElements><EPOCH>2024-10-17T21:55:54.124896</EPOCH><MEAN_MOTION>14.57231328</MEAN_MOTION><ECCENTRICITY>.0001469</ECCENTRICITY><INCLINATION>46.9994</INCLINATION><RA_OF_ASC_NODE>259.7017</RA_OF_ASC_NODE><ARG_OF_PERICENTER>354.7149</ARG_OF_PERICENTER><MEAN_ANOMALY>5.3720</MEAN_ANOMALY></meanElements><tleParameters><EPHEMERIS_TYPE>0</EPHEMERIS_TYPE><CLASSIFICATION_TYPE>U</CLASSIFICATION_TYPE><NORAD_CAT_ID>41180</NORAD_CAT_ID><ELEMENT_SET_NO>999</ELEMENT_SET_NO><REV_AT_EPOCH>47037</REV_AT_EPOCH><BSTAR>.8085E-3</BSTAR><MEAN_MOTION_DOT>.3522E-4</MEAN_MOTION_DOT><MEAN_MOTION_DDOT>0</MEAN_MOTION_DDOT></tleParameters></data></segment></body></omm>
<omm id="CCSDS_OMM_VERS" version="2.0">
<header><CREATION_DATE/><ORIGINATOR/></header><body><segment><metadata><OBJECT_NAME>ORBCOMM FM105</OBJECT_NAME><OBJECT_ID>2015-081C</OBJECT_ID><CENTER_NAME>EARTH</CENTER_NAME><REF_FRAME>TEME</REF_FRAME><TIME_SYSTEM>UTC</TIME_SYSTEM><MEAN_ELEMENT_THEORY>SGP4</MEAN_ELEMENT_THEORY></metadata><data><meanElements><EPOCH>2024-10-17T14:20:52.930176</EPOCH><MEAN_MOTION>14.44744674</MEAN_MOTION><ECCENTRICITY>.0002401</ECCENTRICITY><INCLINATION>47.0010</INCLINATION><RA_OF_ASC_NODE>242.9046</RA_OF_ASC_NODE><ARG_OF_PERICENTER>306.7441</ARG_OF_PERICENTER><MEAN_ANOMALY>53.3218</MEAN_ANOMALY></meanElements><tleParameters><EPHEMERIS_TYPE>0</EPHEMERIS_TYPE><CLASSIFICATION_TYPE>U</CLASSIFICATION_TYPE><NORAD_CAT_ID>41181</NORAD_CAT_ID><ELEMENT_SET_NO>999</ELEMENT_SET_NO><REV_AT_EPOCH>46577</REV_AT_EPOCH><BSTAR>.59861E-3</BSTAR><MEAN_MOTION_DOT>.1939E-4</MEAN_MOTION_DOT><MEAN_MOTION_DDOT>0</MEAN_MOTION_DDOT></tleParameters></data></segment></body></omm>
<omm id="CCSDS_OMM_VERS" version="2.0">
<header><CREATION_DATE/><ORIGINATOR/></header><body><segment><metadata><OBJECT_NAME>ORBCOMM FM110</OBJECT_NAME><OBJECT_ID>2015-081D</OBJECT_ID><CENTER_NAME>EARTH</CENTER_NAME><REF_FRAME>TEME</REF_FRAME><TIME_SYSTEM>UTC</TIME_SYSTEM><MEAN_ELEMENT_THEORY>SGP4</MEAN_ELEMENT_THEORY></metadata><data><meanElements><EPOCH>2024-10-17T12:03:52.943904</EPOCH><MEAN_MOTION>14.57245577</MEAN_MOTION><ECCENTRICITY>.0000263</ECCENTRICITY><INCLINATION>47.0024</INCLINATION><RA_OF_ASC_NODE>351.8000</RA_OF_ASC_NODE><ARG_OF_PERICENTER>135.2962</ARG_OF_PERICENTER><MEAN_ANOMALY>224.7945</MEAN_ANOMALY></meanElements><tleParameters><EPHEMERIS_TYPE>0</EPHEMERIS_TYPE><CLASSIFICATION_TYPE>U</CLASSIFICATION_TYPE><NORAD_CAT_ID>41182</NORAD_CAT_ID><ELEMENT_SET_NO>999</ELEMENT_SET_NO><REV_AT_EPOCH>46893</REV_AT_EPOCH><BSTAR>.88082E-3</BSTAR><MEAN_MOTION_DOT>.3854E-4</MEAN_MOTION_DOT><MEAN_MOTION_DDOT>0</MEAN_MOTION_DDOT></tleParameters></data></segment></body></omm>
<omm id="CCSDS_OMM_VERS" version="2.0">
<header><CREATION_DATE/><ORIGINATOR/></header><body><segment><metadata><OBJECT_NAME>ORBCOMM FM118</OBJECT_NAME><OBJECT_ID>2015-081E</OBJECT_ID><CENTER_NAME>EARTH</CENTER_NAME><REF_FRAME>TEME</REF_FRAME><TIME_SYSTEM>UTC</TIME_SYSTEM><MEAN_ELEMENT_THEORY>SGP4</MEAN_ELEMENT_THEORY></metadata><data><meanElements><EPOCH>2024-10-17T11:32:14.233056</EPOCH><MEAN_MOTION>14.57256620</MEAN_MOTION><ECCENTRICITY>.0000633</ECCENTRICITY><INCLINATION>47.0047</INCLINATION><RA_OF_ASC_NODE>352.2499</RA_OF_ASC_NODE><ARG_OF_PERICENTER>138.6323</ARG_OF_PERICENTER><MEAN_ANOMALY>221.4610</MEAN_ANOMALY></meanElements><tleParameters><EPHEMERIS_TYPE>0</EPHEMERIS_TYPE><CLASSIFICATION_TYPE>U</CLASSIFICATION_TYPE><NORAD_CAT_ID>41183</NORAD_CAT_ID><ELEMENT_SET_NO>999</ELEMENT_SET_NO><REV_AT_EPOCH>46903</REV_AT_EPOCH><BSTAR>.89951E-3</BSTAR><MEAN_MOTION_DOT>.394E-4</MEAN_MOTION_DOT><MEAN_MOTION_DDOT>0</MEAN_MOTION_DDOT></tleParameters></data></segment></body></omm>
<omm id="CCSDS_OMM_VERS" version="2.0">
<header><CREATION_DATE/><ORIGINATOR/></header><body><segment><metadata><OBJECT_NAME>ORBCOMM FM112</OBJECT_NAME><OBJECT_ID>2015-081F</OBJECT_ID><CENTER_NAME>EARTH</CENTER_NAME><REF_FRAME>TEME</REF_FRAME><TIME_SYSTEM>UTC</TIME_SYSTEM><MEAN_ELEMENT_THEORY>SGP4</MEAN_ELEMENT_THEORY></metadata><data><meanElements><EPOCH>2024-10-17T08:13:48.317376</EPOCH><MEAN_MOTION>14.57216811</MEAN_MOTION><ECCENTRICITY>.0002102</ECCENTRICITY><INCLINATION>46.9979</INCLINATION><RA_OF_ASC_NODE>261.5916</RA_OF_ASC_NODE><ARG_OF_PERICENTER>342.0254</ARG_OF_PERICENTER><MEAN_ANOMALY>18.0556</MEAN_ANOMALY></meanElements><tleParameters><EPHEMERIS_TYPE>0</EPHEMERIS_TYPE><CLASSIFICATION_TYPE>U</CLASSIFICATION_TYPE><NORAD_CAT_ID>41184</NORAD_CAT_ID><ELEMENT_SET_NO>999</ELEMENT_SET_NO><REV_AT_EPOCH>47023</REV_AT_EPOCH><BSTAR>.66761E-3</BSTAR><MEAN_MOTION_DOT>.2877E-4</MEAN_MOTION_DOT><MEAN_MOTION_DDOT>0</MEAN_MOTION_DDOT></tleParameters></data></segment></body></omm>
<omm id="CCSDS_OMM_VERS" version="2.0">
<header><CREATION_DATE/><ORIGINATOR/></header><body><segment><metadata><OBJECT_NAME>ORBCOMM FM113</OBJECT_NAME><OBJECT_ID>2015-081G</OBJECT_ID><CENTER_NAME>EARTH</CENTER_NAME><REF_FRAME>TEME</REF_FRAME><TIME_SYSTEM>UTC</TIME_SYSTEM><MEAN_ELEMENT_THEORY>SGP4</MEAN_ELEMENT_THEORY></metadata><data><meanElements><EPOCH>2024-10-17T07:40:52.880736</EPOCH><MEAN_MOTION>14.57205387</MEAN_MOTION><ECCENTRICITY>.000175</ECCENTRICITY><INCLINATION>47.0006</INCLINATION><RA_OF_ASC_NODE>261.9911</RA_OF_ASC_NODE><ARG_OF_PERICENTER>359.3958</ARG_OF_PERICENTER><MEAN_ANOMALY>0.6925</MEAN_ANOMALY></meanElements><tleParameters><EPHEMERIS_TYPE>0</EPHEMERIS_TYPE><CLASSIFICATION_TYPE>U</CLASSIFICATION_TYPE><NORAD_CAT_ID>41185</NORAD_CAT_ID><ELEMENT_SET_NO>999</ELEMENT_SET_NO><REV_AT_EPOCH>47021</REV_AT_EPOCH><BSTAR>.65205E-3</BSTAR><MEAN_MOTION_DOT>.2806E-4</MEAN_MOTION_DOT><MEAN_MOTION_DDOT>0</MEAN_MOTION_DDOT></tleParameters></data></segment></body></omm>

</ndm>
